[
  {
    "OBJECT_NAME": "STARLINK-34249",
    "OBJECT_ID": "25190AB",
    "EPOCH": "2025-11-11T06:45:39.653280",
    "MEAN_MOTION": 15.30181626,
    "ECCENTRICITY": 0.0001228,
    "INCLINATION": 53.1589,
    "RA_OF_ASC_NODE": 358.3568,
    "ARG_OF_PERICENTER": 69.1976,
    "MEAN_ANOMALY": 290.9156,
    "EPHEMERIS_TYPE": 0,
    "CLASSIFICATION_TYPE": "U",
    "NORAD_CAT_ID": 65376,
    "ELEMENT_SET_NO": 999,
    "REV_AT_EPOCH": 1204,
    "BSTAR": 0.0019604,
    "MEAN_MOTION_DOT": 0.00058124,
    "MEAN_MOTION_DDOT": 0.0,
    "TLE_LINE1": "1 65376U 25190AB  25315.28170895  .00058124  00000+0  19604-2 0  9991",
    "TLE_LINE2": "2 65376  53.1589 358.3568 0001228  69.1976 290.9156 15.30181626 12041",
    "COMMENT": "Grouped by shell and plane from TLE"
  },
  {
    "OBJECT_NAME": "STARLINK-34879",
    "OBJECT_ID": "25190AC",
    "EPOCH": "2025-11-11T07:21:57.888864",
    "MEAN_MOTION": 15.30205063,
    "ECCENTRICITY": 0.0001166,
    "INCLINATION": 53.1631,
    "RA_OF_ASC_NODE": 357.8051,
    "ARG_OF_PERICENTER": 66.562,
    "MEAN_ANOMALY": 293.5503,
    "EPHEMERIS_TYPE": 0,
    "CLASSIFICATION_TYPE": "U",
    "NORAD_CAT_ID": 65377,
    "ELEMENT_SET_NO": 999,
    "REV_AT_EPOCH": 1163,
    "BSTAR": 0.0008900000000000001,
    "MEAN_MOTION_DOT": 0.00026097,
    "MEAN_MOTION_DDOT": 0.0,
    "TLE_LINE1": "1 65377U 25190AC  25315.30692001  .00026097  00000+0  89000-3 0  9995",
    "TLE_LINE2": "2 65377  53.1631 357.8051 0001166  66.5620 293.5503 15.30205063 11630",
    "COMMENT": "Grouped by shell and plane from TLE"
  },
  {
    "OBJECT_NAME": "STARLINK-34912",
    "OBJECT_ID": "25190AD",
    "EPOCH": "2025-11-11T07:12:50.688288",
    "MEAN_MOTION": 15.3022305,
    "ECCENTRICITY": 7.22e-05,
    "INCLINATION": 53.1624,
    "RA_OF_ASC_NODE": 357.762,
    "ARG_OF_PERICENTER": 123.169,
    "MEAN_ANOMALY": 236.938,
    "EPHEMERIS_TYPE": 0,
    "CLASSIFICATION_TYPE": "U",
    "NORAD_CAT_ID": 65378,
    "ELEMENT_SET_NO": 999,
    "REV_AT_EPOCH": 1163,
    "BSTAR": 0.0011068,
    "MEAN_MOTION_DOT": 0.00032588,
    "MEAN_MOTION_DDOT": 0.0,
    "TLE_LINE1": "1 65378U 25190AD  25315.30058667  .00032588  00000+0  11068-2 0  9990",
    "TLE_LINE2": "2 65378  53.1624 357.7620 0000722 123.1690 236.9380 15.30223050 11638",
    "COMMENT": "Grouped by shell and plane from TLE"
  },
  {
    "OBJECT_NAME": "STARLINK-35523",
    "OBJECT_ID": "25225A",
    "EPOCH": "2025-11-11T05:10:41.343456",
    "MEAN_MOTION": 15.49342759,
    "ECCENTRICITY": 0.0001048,
    "INCLINATION": 53.16,
    "RA_OF_ASC_NODE": 357.0889,
    "ARG_OF_PERICENTER": 12.256,
    "MEAN_ANOMALY": 347.8475,
    "EPHEMERIS_TYPE": 0,
    "CLASSIFICATION_TYPE": "U",
    "NORAD_CAT_ID": 65910,
    "ELEMENT_SET_NO": 999,
    "REV_AT_EPOCH": 625,
    "BSTAR": 0.001342,
    "MEAN_MOTION_DOT": 0.00074996,
    "MEAN_MOTION_DDOT": 0.0,
    "TLE_LINE1": "1 65910U 25225A   25315.21575629  .00074996  00000+0  13420-2 0  9996",
    "TLE_LINE2": "2 65910  53.1600 357.0889 0001048  12.2560 347.8475 15.49342759  6257",
    "COMMENT": "Grouped by shell and plane from TLE"
  },
  {
    "OBJECT_NAME": "STARLINK-35160",
    "OBJECT_ID": "25225B",
    "EPOCH": "2025-11-11T06:43:05.192544",
    "MEAN_MOTION": 15.49324767,
    "ECCENTRICITY": 0.0001212,
    "INCLINATION": 53.1607,
    "RA_OF_ASC_NODE": 356.7773,
    "ARG_OF_PERICENTER": 69.2798,
    "MEAN_ANOMALY": 290.8341,
    "EPHEMERIS_TYPE": 0,
    "CLASSIFICATION_TYPE": "U",
    "NORAD_CAT_ID": 65911,
    "ELEMENT_SET_NO": 999,
    "REV_AT_EPOCH": 626,
    "BSTAR": 0.001164,
    "MEAN_MOTION_DOT": 0.00064864,
    "MEAN_MOTION_DDOT": 0.0,
    "TLE_LINE1": "1 65911U 25225B   25315.27992121  .00064864  00000+0  11640-2 0  9998",
    "TLE_LINE2": "2 65911  53.1607 356.7773 0001212  69.2798 290.8341 15.49324767  6260",
    "COMMENT": "Grouped by shell and plane from TLE"
  },
  {
    "OBJECT_NAME": "STARLINK-35508",
    "OBJECT_ID": "25225C",
    "EPOCH": "2025-11-11T06:42:35.488224",
    "MEAN_MOTION": 15.49331701,
    "ECCENTRICITY": 0.0001072,
    "INCLINATION": 53.1604,
    "RA_OF_ASC_NODE": 356.7729,
    "ARG_OF_PERICENTER": 355.0212,
    "MEAN_ANOMALY": 5.0786,
    "EPHEMERIS_TYPE": 0,
    "CLASSIFICATION_TYPE": "U",
    "NORAD_CAT_ID": 65912,
    "ELEMENT_SET_NO": 999,
    "REV_AT_EPOCH": 626,
    "BSTAR": 0.0013851,
    "MEAN_MOTION_DOT": 0.00077413,
    "MEAN_MOTION_DDOT": 0.0,
    "TLE_LINE1": "1 65912U 25225C   25315.27957741  .00077413  00000+0  13851-2 0  9998",
    "TLE_LINE2": "2 65912  53.1604 356.7729 0001072 355.0212   5.0786 15.49331701  6265",
    "COMMENT": "Grouped by shell and plane from TLE"
  },
  {
    "OBJECT_NAME": "STARLINK-35472",
    "OBJECT_ID": "25225D",
    "EPOCH": "2025-11-11T03:36:18.760896",
    "MEAN_MOTION": 15.49361451,
    "ECCENTRICITY": 0.0001378,
    "INCLINATION": 53.1596,
    "RA_OF_ASC_NODE": 357.3884,
    "ARG_OF_PERICENTER": 88.9114,
    "MEAN_ANOMALY": 271.2053,
    "EPHEMERIS_TYPE": 0,
    "CLASSIFICATION_TYPE": "U",
    "NORAD_CAT_ID": 65913,
    "ELEMENT_SET_NO": 999,
    "REV_AT_EPOCH": 624,
    "BSTAR": 0.0024235000000000003,
    "MEAN_MOTION_DOT": 0.00136978,
    "MEAN_MOTION_DDOT": 0.0,
    "TLE_LINE1": "1 65913U 25225D   25315.15021714  .00136978  00000+0  24235-2 0  9998",
    "TLE_LINE2": "2 65913  53.1596 357.3884 0001378  88.9114 271.2053 15.49361451  6244",
    "COMMENT": "Grouped by shell and plane from TLE"
  },
  {
    "OBJECT_NAME": "STARLINK-35524",
    "OBJECT_ID": "25225E",
    "EPOCH": "2025-11-11T06:41:35.801376",
    "MEAN_MOTION": 15.49369884,
    "ECCENTRICITY": 0.0001294,
    "INCLINATION": 53.1609,
    "RA_OF_ASC_NODE": 356.7687,
    "ARG_OF_PERICENTER": 106.7798,
    "MEAN_ANOMALY": 253.3353,
    "EPHEMERIS_TYPE": 0,
    "CLASSIFICATION_TYPE": "U",
    "NORAD_CAT_ID": 65914,
    "ELEMENT_SET_NO": 999,
    "REV_AT_EPOCH": 626,
    "BSTAR": 0.0011498,
    "MEAN_MOTION_DOT": 0.00064163,
    "MEAN_MOTION_DDOT": 0.0,
    "TLE_LINE1": "1 65914U 25225E   25315.27888659  .00064163  00000+0  11498-2 0  9994",
    "TLE_LINE2": "2 65914  53.1609 356.7687 0001294 106.7798 253.3353 15.49369884  6262",
    "COMMENT": "Grouped by shell and plane from TLE"
  },
  {
    "OBJECT_NAME": "STARLINK-35539",
    "OBJECT_ID": "25225F",
    "EPOCH": "2025-11-11T02:53:39.528960",
    "MEAN_MOTION": 15.39639528,
    "ECCENTRICITY": 4.63e-05,
    "INCLINATION": 53.1619,
    "RA_OF_ASC_NODE": 358.6375,
    "ARG_OF_PERICENTER": 87.5559,
    "MEAN_ANOMALY": 272.5499,
    "EPHEMERIS_TYPE": 0,
    "CLASSIFICATION_TYPE": "U",
    "NORAD_CAT_ID": 65915,
    "ELEMENT_SET_NO": 999,
    "REV_AT_EPOCH": 622,
    "BSTAR": 0.0019272,
    "MEAN_MOTION_DOT": 0.00077526,
    "MEAN_MOTION_DDOT": 0.0,
    "TLE_LINE1": "1 65915U 25225F   25315.12059640  .00077526  00000+0  19272-2 0  9994",
    "TLE_LINE2": "2 65915  53.1619 358.6375 0000463  87.5559 272.5499 15.39639528  6221",
    "COMMENT": "Grouped by shell and plane from TLE"
  },
  {
    "OBJECT_NAME": "STARLINK-35521",
    "OBJECT_ID": "25225G",
    "EPOCH": "2025-11-11T06:40:36.754752",
    "MEAN_MOTION": 15.49343621,
    "ECCENTRICITY": 0.0001262,
    "INCLINATION": 53.1606,
    "RA_OF_ASC_NODE": 356.7629,
    "ARG_OF_PERICENTER": 87.527,
    "MEAN_ANOMALY": 272.5884,
    "EPHEMERIS_TYPE": 0,
    "CLASSIFICATION_TYPE": "U",
    "NORAD_CAT_ID": 65916,
    "ELEMENT_SET_NO": 999,
    "REV_AT_EPOCH": 626,
    "BSTAR": 0.0019604,
    "MEAN_MOTION_DOT": 0.00110265,
    "MEAN_MOTION_DDOT": 0.0,
    "TLE_LINE1": "1 65916U 25225G   25315.27820318  .00110265  00000+0  19604-2 0  9996",
    "TLE_LINE2": "2 65916  53.1606 356.7629 0001262  87.5270 272.5884 15.49343621  6266",
    "COMMENT": "Grouped by shell and plane from TLE"
  },
  {
    "OBJECT_NAME": "STARLINK-35478",
    "OBJECT_ID": "25225H",
    "EPOCH": "2025-11-11T06:39:37.464480",
    "MEAN_MOTION": 15.49344503,
    "ECCENTRICITY": 0.0001466,
    "INCLINATION": 53.1611,
    "RA_OF_ASC_NODE": 356.7594,
    "ARG_OF_PERICENTER": 87.1073,
    "MEAN_ANOMALY": 273.0104,
    "EPHEMERIS_TYPE": 0,
    "CLASSIFICATION_TYPE": "U",
    "NORAD_CAT_ID": 65917,
    "ELEMENT_SET_NO": 999,
    "REV_AT_EPOCH": 626,
    "BSTAR": 0.0021426,
    "MEAN_MOTION_DOT": 0.00120724,
    "MEAN_MOTION_DDOT": 0.0,
    "TLE_LINE1": "1 65917U 25225H   25315.27751695  .00120724  00000+0  21426-2 0  9994",
    "TLE_LINE2": "2 65917  53.1611 356.7594 0001466  87.1073 273.0104 15.49344503  6268",
    "COMMENT": "Grouped by shell and plane from TLE"
  },
  {
    "OBJECT_NAME": "STARLINK-35516",
    "OBJECT_ID": "25225J",
    "EPOCH": "2025-11-11T03:34:20.069760",
    "MEAN_MOTION": 15.49364126,
    "ECCENTRICITY": 0.000197,
    "INCLINATION": 53.162,
    "RA_OF_ASC_NODE": 357.3796,
    "ARG_OF_PERICENTER": 90.4259,
    "MEAN_ANOMALY": 269.6976,
    "EPHEMERIS_TYPE": 0,
    "CLASSIFICATION_TYPE": "U",
    "NORAD_CAT_ID": 65918,
    "ELEMENT_SET_NO": 999,
    "REV_AT_EPOCH": 624,
    "BSTAR": 0.0022859,
    "MEAN_MOTION_DOT": 0.00129057,
    "MEAN_MOTION_DDOT": 0.0,
    "TLE_LINE1": "1 65918U 25225J   25315.14884340  .00129057  00000+0  22859-2 0  9994",
    "TLE_LINE2": "2 65918  53.1620 357.3796 0001970  90.4259 269.6976 15.49364126  6242",
    "COMMENT": "Grouped by shell and plane from TLE"
  },
  {
    "OBJECT_NAME": "STARLINK-35519",
    "OBJECT_ID": "25225K",
    "EPOCH": "2025-11-11T06:39:07.721280",
    "MEAN_MOTION": 15.49342131,
    "ECCENTRICITY": 0.0001211,
    "INCLINATION": 53.1608,
    "RA_OF_ASC_NODE": 356.7571,
    "ARG_OF_PERICENTER": 82.3229,
    "MEAN_ANOMALY": 277.7917,
    "EPHEMERIS_TYPE": 0,
    "CLASSIFICATION_TYPE": "U",
    "NORAD_CAT_ID": 65919,
    "ELEMENT_SET_NO": 999,
    "REV_AT_EPOCH": 626,
    "BSTAR": 0.0021347,
    "MEAN_MOTION_DOT": 0.00120258,
    "MEAN_MOTION_DDOT": 0.0,
    "TLE_LINE1": "1 65919U 25225K   25315.27717270  .00120258  00000+0  21347-2 0  9991",
    "TLE_LINE2": "2 65919  53.1608 356.7571 0001211  82.3229 277.7917 15.49342131  6267",
    "COMMENT": "Grouped by shell and plane from TLE"
  }
]